[{"OBJECT_NAME":"SPHEREX (MIDEX 9)","OBJECT_ID":"2025-047E","EPOCH":"2026-03-09T22:30:11.286432","MEAN_MOTION":14.73844034,"ECCENTRICITY":0.00111067,"INCLINATION":97.9571,"RA_OF_ASC_NODE":255.6032,"ARG_OF_PERICENTER":146.1567,"MEAN_ANOMALY":214.0352,"EPHEMERIS_TYPE":0,"CLASSIFICATION_TYPE":"U","NORAD_CAT_ID":63182,"ELEMENT_SET_NO":999,"REV_AT_EPOCH":5342,"BSTAR":0.00026584435,"MEAN_MOTION_DOT":1.693e-5,"MEAN_MOTION_DDOT":0},{"OBJECT_NAME":"SL-8 R\/B","OBJECT_ID":"2000-033D","EPOCH":"2026-03-09T22:15:35.345088","MEAN_MOTION":14.73781297,"ECCENTRICITY":0.00233098,"INCLINATION":97.83,"RA_OF_ASC_NODE":44.1571,"ARG_OF_PERICENTER":215.6913,"MEAN_ANOMALY":144.2738,"EPHEMERIS_TYPE":0,"CLASSIFICATION_TYPE":"U","NORAD_CAT_ID":26387,"ELEMENT_SET_NO":999,"REV_AT_EPOCH":63377,"BSTAR":0.00021160392,"MEAN_MOTION_DOT":1.34e-5,"MEAN_MOTION_DDOT":0}]
